[{"OBJECT_NAME":"STARLINK-4742","OBJECT_ID":"2022-111Y","EPOCH":"2026-03-09T17:01:48.479232","MEAN_MOTION":15.08838182,"ECCENTRICITY":0.00014798,"INCLINATION":53.2152,"RA_OF_ASC_NODE":273.7184,"ARG_OF_PERICENTER":90.4778,"MEAN_ANOMALY":269.6384,"EPHEMERIS_TYPE":0,"CLASSIFICATION_TYPE":"U","NORAD_CAT_ID":53795,"ELEMENT_SET_NO":999,"REV_AT_EPOCH":19369,"BSTAR":-1.5570327e-5,"MEAN_MOTION_DOT":-5.36e-6,"MEAN_MOTION_DDOT":0},{"OBJECT_NAME":"RAPIDEYE 3","OBJECT_ID":"2008-040D","EPOCH":"2026-03-09T19:34:21.496512","MEAN_MOTION":15.06489596,"ECCENTRICITY":0.00114187,"INCLINATION":97.3959,"RA_OF_ASC_NODE":102.9968,"ARG_OF_PERICENTER":27.1842,"MEAN_ANOMALY":332.9981,"EPHEMERIS_TYPE":0,"CLASSIFICATION_TYPE":"U","NORAD_CAT_ID":33315,"ELEMENT_SET_NO":999,"REV_AT_EPOCH":95131,"BSTAR":0.00019030529,"MEAN_MOTION_DOT":2.754e-5,"MEAN_MOTION_DDOT":0}]
